{
  "type": "FeatureCollection",
  "features": [
    {
      "type": "Feature",
      "properties": {
        "norad_id": 36744,
        "name": "COMS 1",
        "group": "weather",
        "lat": -0.04649535823843319,
        "lon": 77.18813513156532,
        "alt_km": 35790.924033518844,
        "timestamp": "2025-12-02T15:49:06.826023+00:00",
        "meta_object_name": "COMS 1",
        "meta_object_id": "2010-032A",
        "meta_epoch": "2025-12-01T12:42:46.444608",
        "meta_mean_motion": 1.00270535,
        "meta_eccentricity": 0.00010192,
        "meta_inclination": 4.3122,
        "meta_ra_of_asc_node": 78.1218,
        "meta_arg_of_pericenter": 177.7332,
        "meta_mean_anomaly": 133.6625,
        "meta_ephemeris_type": 0,
        "meta_classification_type": "U",
        "meta_norad_cat_id": 36744,
        "meta_element_set_no": 999,
        "meta_rev_at_epoch": 4910,
        "meta_bstar": 0,
        "meta_mean_motion_dot": -3.23e-06,
        "meta_mean_motion_ddot": 0,
        "tle_line1": "1 36744U 10032A   25335.52970422 -.00000323  00000+0  00000+0 0  9996",
        "tle_line2": "2 36744   4.3122  78.1218 0001019 177.7332 133.6625  1.00270535 49109"
      },
      "geometry": {
        "type": "Point",
        "coordinates": [
          77.18813513156532,
          -0.04649535823843319
        ]
      }
    },
    {
      "type": "Feature",
      "properties": {
        "norad_id": 37214,
        "name": "FENGYUN 3B",
        "group": "weather",
        "lat": -20.166545036721637,
        "lon": -166.76852949043783,
        "alt_km": 864.3162652718074,
        "timestamp": "2025-12-02T15:49:06.826035+00:00",
        "meta_object_name": "FENGYUN 3B",
        "meta_object_id": "2010-059A",
        "meta_epoch": "2025-12-02T06:48:43.853760",
        "meta_mean_motion": 14.14785104,
        "meta_eccentricity": 0.00224888,
        "meta_inclination": 98.9923,
        "meta_ra_of_asc_node": 16.1875,
        "meta_arg_of_pericenter": 27.2198,
        "meta_mean_anomaly": 62.8177,
        "meta_ephemeris_type": 0,
        "meta_classification_type": "U",
        "meta_norad_cat_id": 37214,
        "meta_element_set_no": 999,
        "meta_rev_at_epoch": 77958,
        "meta_bstar": 9.4867446e-05,
        "meta_mean_motion_dot": 1.38e-06,
        "meta_mean_motion_ddot": 0,
        "tle_line1": "1 37214U 10059A   25336.28384090  .00000138  00000+0  94867-4 0  9994",
        "tle_line2": "2 37214  98.9923  16.1875 0022488  27.2198  62.8177 14.14785104779582"
      },
      "geometry": {
        "type": "Point",
        "coordinates": [
          -166.76852949043783,
          -20.166545036721637
        ]
      }
    },
    {
      "type": "Feature",
      "properties": {
        "norad_id": 37849,
        "name": "SUOMI NPP",
        "group": "weather",
        "lat": -49.34872467771828,
        "lon": 83.72820588392806,
        "alt_km": 833.8998952053889,
        "timestamp": "2025-12-02T15:49:06.826046+00:00",
        "meta_object_name": "SUOMI NPP",
        "meta_object_id": "2011-061A",
        "meta_epoch": "2025-12-02T06:16:47.285760",
        "meta_mean_motion": 14.19509352,
        "meta_eccentricity": 0.0001856,
        "meta_inclination": 98.7757,
        "meta_ra_of_asc_node": 273.6984,
        "meta_arg_of_pericenter": 138.8637,
        "meta_mean_anomaly": 221.2679,
        "meta_ephemeris_type": 0,
        "meta_classification_type": "U",
        "meta_norad_cat_id": 37849,
        "meta_element_set_no": 999,
        "meta_rev_at_epoch": 73050,
        "meta_bstar": 8.4039283e-05,
        "meta_mean_motion_dot": 1.33e-06,
        "meta_mean_motion_ddot": 0,
        "tle_line1": "1 37849U 11061A   25336.26165840  .00000133  00000+0  84039-4 0  9995",
        "tle_line2": "2 37849  98.7757 273.6984 0001856 138.8637 221.2679 14.19509352730504"
      },
      "geometry": {
        "type": "Point",
        "coordinates": [
          83.72820588392806,
          -49.34872467771828
        ]
      }
    },
    {
      "type": "Feature",
      "properties": {
        "norad_id": 38552,
        "name": "METEOSAT-10 (MSG-3)",
        "group": "weather",
        "lat": -3.8845654718765807,
        "lon": -50.93194485334615,
        "alt_km": 35783.904682099994,
        "timestamp": "2025-12-02T15:49:06.826058+00:00",
        "meta_object_name": "METEOSAT-10 (MSG-3)",
        "meta_object_id": "2012-035B",
        "meta_epoch": "2025-12-02T01:48:01.931904",
        "meta_mean_motion": 1.002722,
        "meta_eccentricity": 6.876e-05,
        "meta_inclination": 4.2018,
        "meta_ra_of_asc_node": 61.7375,
        "meta_arg_of_pericenter": 218.9493,
        "meta_mean_anomaly": 177.6056,
        "meta_ephemeris_type": 0,
        "meta_classification_type": "U",
        "meta_norad_cat_id": 38552,
        "meta_element_set_no": 999,
        "meta_rev_at_epoch": 4888,
        "meta_bstar": 0,
        "meta_mean_motion_dot": 1.3e-07,
        "meta_mean_motion_ddot": 0,
        "tle_line1": "1 38552U 12035B   25336.07502236  .00000013  00000+0  00000+0 0  9990",
        "tle_line2": "2 38552   4.2018  61.7375 0000687 218.9493 177.6056  1.00272200 48880"
      },
      "geometry": {
        "type": "Point",
        "coordinates": [
          -50.93194485334615,
          -3.8845654718765807
        ]
      }
    },
    {
      "type": "Feature",
      "properties": {
        "norad_id": 38771,
        "name": "METOP-B",
        "group": "weather",
        "lat": 13.447511618675563,
        "lon": 24.694480325857246,
        "alt_km": 823.1878261521742,
        "timestamp": "2025-12-02T15:49:06.826070+00:00",
        "meta_object_name": "METOP-B",
        "meta_object_id": "2012-049A",
        "meta_epoch": "2025-12-02T05:37:05.306016",
        "meta_mean_motion": 14.21402018,
        "meta_eccentricity": 0.00024307,
        "meta_inclination": 98.6815,
        "meta_ra_of_asc_node": 26.3703,
        "meta_arg_of_pericenter": 168.0989,
        "meta_mean_anomaly": 192.0247,
        "meta_ephemeris_type": 0,
        "meta_classification_type": "U",
        "meta_norad_cat_id": 38771,
        "meta_element_set_no": 999,
        "meta_rev_at_epoch": 68528,
        "meta_bstar": 0.00011371126,
        "meta_mean_motion_dot": 2.05e-06,
        "meta_mean_motion_ddot": 0,
        "tle_line1": "1 38771U 12049A   25336.23408919  .00000205  00000+0  11371-3 0  9999",
        "tle_line2": "2 38771  98.6815  26.3703 0002430 168.0989 192.0247 14.21402018685283"
      },
      "geometry": {
        "type": "Point",
        "coordinates": [
          24.694480325857246,
          13.447511618675563
        ]
      }
    },
    {
      "type": "Feature",
      "properties": {
        "norad_id": 39216,
        "name": "INSAT-3D",
        "group": "weather",
        "lat": -0.14144156381299133,
        "lon": 78.51708026871322,
        "alt_km": 35792.16084195028,
        "timestamp": "2025-12-02T15:49:06.826098+00:00",
        "meta_object_name": "INSAT-3D",
        "meta_object_id": "2013-038B",
        "meta_epoch": "2025-12-02T05:57:38.749824",
        "meta_mean_motion": 1.00274464,
        "meta_eccentricity": 0.00017064,
        "meta_inclination": 1.4153,
        "meta_ra_of_asc_node": 85.1133,
        "meta_arg_of_pericenter": 152.3343,
        "meta_mean_anomaly": 52.8253,
        "meta_ephemeris_type": 0,
        "meta_classification_type": "U",
        "meta_norad_cat_id": 39216,
        "meta_element_set_no": 999,
        "meta_rev_at_epoch": 4510,
        "meta_bstar": 0,
        "meta_mean_motion_dot": -3.18e-06,
        "meta_mean_motion_ddot": 0,
        "tle_line1": "1 39216U 13038B   25336.24836516 -.00000318  00000+0  00000+0 0  9991",
        "tle_line2": "2 39216   1.4153  85.1133 0001706 152.3343  52.8253  1.00274464 45106"
      },
      "geometry": {
        "type": "Point",
        "coordinates": [
          78.51708026871322,
          -0.14144156381299133
        ]
      }
    },
    {
      "type": "Feature",
      "properties": {
        "norad_id": 39260,
        "name": "FENGYUN 3C",
        "group": "weather",
        "lat": 70.33733876662947,
        "lon": 159.49452437880623,
        "alt_km": 837.8953231701998,
        "timestamp": "2025-12-02T15:49:06.826111+00:00",
        "meta_object_name": "FENGYUN 3C",
        "meta_object_id": "2013-052A",
        "meta_epoch": "2025-12-02T06:49:44.018400",
        "meta_mean_motion": 14.15691032,
        "meta_eccentricity": 0.00137808,
        "meta_inclination": 98.4752,
        "meta_ra_of_asc_node": 314.475,
        "meta_arg_of_pericenter": 227.53,
        "meta_mean_anomaly": 132.4711,
        "meta_ephemeris_type": 0,
        "meta_classification_type": "U",
        "meta_norad_cat_id": 39260,
        "meta_element_set_no": 999,
        "meta_rev_at_epoch": 63070,
        "meta_bstar": 0.00010556541,
        "meta_mean_motion_dot": 1.66e-06,
        "meta_mean_motion_ddot": 0,
        "tle_line1": "1 39260U 13052A   25336.28453725  .00000166  00000+0  10557-3 0  9999",
        "tle_line2": "2 39260  98.4752 314.4750 0013780 227.5300 132.4711 14.15691032630706"
      },
      "geometry": {
        "type": "Point",
        "coordinates": [
          159.49452437880623,
          70.33733876662947
        ]
      }
    }
  ]
}